NOAA 15                 
1 25338U 98030A   25231.77009435  .00000153  00000+0  80310-4 0  9993
2 25338  98.5336 255.1809 0010950 145.7140 214.4750 14.27013376418307
DMSP 5D-3 F16 (USA 172) 
1 28054U 03048A   25232.54221183  .00000083  00000+0  67285-4 0  9996
2 28054  99.0133 249.0262 0006115 280.1831 232.2086 14.14367398126960
NOAA 18                 
1 28654U 05018A   25232.46363040  .00000076  00000+0  63584-4 0  9991
2 28654  98.8395 311.1234 0013149 286.4823  73.4904 14.13628417 43905
METEOSAT-9 (MSG-2)      
1 28912U 05049B   25231.18666498  .00000108  00000+0  00000+0 0  9998
2 28912   8.6690  57.0548 0000475 226.3338 157.3074  1.00275115 72058
EWS-G1 (GOES 13)        
1 29155U 06018A   25231.72105130  .00000002  00000+0  00000+0 0  9999
2 29155   3.7442  80.1190 0058963 267.1291 100.8565  0.98786005 40273
DMSP 5D-3 F17 (USA 191) 
1 29522U 06050A   25232.49218116  .00000089  00000+0  68437-4 0  9995
2 29522  98.7410 240.2281 0009827 188.0796 172.0221 14.14848937969890
FENGYUN 3A              
1 32958U 08026A   25232.42492147  .00000061  00000+0  49537-4 0  9998
2 32958  98.6503 174.4802 0007593 276.2917  83.7395 14.19463041892843
GOES 14                 
1 35491U 09033A   25231.58446405 -.00000084  00000+0  00000+0 0  9997
2 35491   0.8961  87.0643 0003385  92.3208 251.0871  1.00268628  3560
DMSP 5D-3 F18 (USA 210) 
1 35951U 09057A   25232.50552461  .00000242  00000+0  14897-3 0  9995
2 35951  98.8660 209.5680 0011806  31.0929 329.0940 14.14674967817059
EWS-G2 (GOES 15)        
1 36411U 10008A   25232.24280894  .00000017  00000+0  00000+0 0  9991
2 36411   0.5055  85.3234 0004904 125.3850 267.1869  1.00276187 56617
COMS 1                  
1 36744U 10032A   25232.20997214 -.00000363  00000+0  00000+0 0  9999
2 36744   4.0497  79.1654 0000773  92.8151   0.4985  1.00270699 55634
FENGYUN 3B              
1 37214U 10059A   25232.54771440  .00000059  00000+0  54162-4 0  9993
2 37214  99.0088 271.6088 0021398 320.5827 199.1827 14.14746470764951
SUOMI NPP               
1 37849U 11061A   25232.50656319  .00000064  00000+0  51015-4 0  9994
2 37849  98.7590 170.9874 0002512  96.9001 263.2461 14.19554085715775
METEOSAT-10 (MSG-3)     
1 38552U 12035B   25232.24831466 -.00000024  00000+0  00000+0 0  9997
2 38552   3.9547  61.9704 0000106 355.5751   0.7889  1.00269517 48205
METOP-B                 
1 38771U 12049A   25232.47619697  .00000081  00000+0  56387-4 0  9996
2 38771  98.5719 284.6493 0001970 113.2891 246.8495 14.21474703670537
INSAT-3D                
1 39216U 13038B   25232.27368186 -.00000357  00000+0  00000+0 0  9995
2 39216   1.1439  86.6061 0000884 117.8364 352.4746  1.00273774 44288
FENGYUN 3C              
1 39260U 13052A   25232.52921149  .00000058  00000+0  50331-4 0  9996
2 39260  98.4608 215.8608 0014946 164.4897 195.6739 14.15644430616094
METEOR-M 2              
1 40069U 14037A   25232.49640647  .00000126  00000+0  76976-4 0  9995
2 40069  98.4744 214.5396 0005592 178.3104 181.8094 14.21320480576602
HIMAWARI-8              
1 40267U 14060A   25231.91925875 -.00000293  00000+0  00000+0 0  9992
2 40267   0.0370 235.3753 0000656 295.5016 269.2037  1.00270890 39721
FENGYUN 2G              
1 40367U 14090A   25231.91111205 -.00000320  00000+0  00000+0 0  9991
2 40367   4.8727  76.4876 0004378 163.3803 156.3214  1.00268010 38971
METEOSAT-11 (MSG-4)     
1 40732U 15034A   25232.25013468  .00000044  00000+0  00000+0 0  9998
2 40732   2.4444  72.3089 0000531  66.6622 289.3640  1.00265212 36990
ELEKTRO-L 2             
1 41105U 15074A   25232.24536799 -.00000136  00000+0  00000+0 0  9996
2 41105   5.9315  74.2340 0001896 168.6826 159.7541  1.00272255 35494
INSAT-3DR               
1 41752U 16054A   25231.90608536 -.00000094  00000+0  00000+0 0  9997
2 41752   0.0831  93.8354 0011291 168.6794 106.1649  1.00271006 32795
HIMAWARI-9              
1 41836U 16064A   25231.91925875 -.00000292  00000+0  00000+0 0  9990
2 41836   0.0284 240.6199 0001145 303.1892 256.3826  1.00271514 32183
GOES 16                 
1 41866U 16071A   25232.25529663 -.00000108  00000+0  00000+0 0  9990
2 41866   0.0605  98.1343 0001855 100.8408 117.0386  1.00272159 32082
FENGYUN 4A              
1 41882U 16077A   25231.77733715 -.00000374  00000+0  00000+0 0  9990
2 41882   1.5507  83.5634 0006538 166.0885 122.2265  1.00274179 31902
CYGFM05                 
1 41884U 16078A   25232.54356156  .00013304  00000+0  30040-3 0  9996
2 41884  34.9604  69.8437 0008636 204.0369 155.9949 15.42294919482199
CYGFM04                 
1 41885U 16078B   25231.89430075  .00015735  00000+0  33102-3 0  9999
2 41885  34.9361  51.6375 0008026 223.3435 136.6654 15.44365027482304
CYGFM02                 
1 41886U 16078C   25232.18226496  .00016294  00000+0  33189-3 0  9999
2 41886  34.9449  49.4766 0009465 218.9348 141.0692 15.45291485482378
CYGFM01                 
1 41887U 16078D   25232.25292087  .00014894  00000+0  33154-3 0  9993
2 41887  34.9440  74.8493 0007916 189.0252 171.0327 15.42707059482105
CYGFM08                 
1 41888U 16078E   25231.87057655  .00015239  00000+0  32779-3 0  9997
2 41888  34.9469  61.4973 0010014 209.4227 150.5930 15.43697603482144
CYGFM07                 
1 41890U 16078G   25231.91643785  .00015956  00000+0  33623-3 0  9995
2 41890  34.9488  50.8264 0008467 228.9398 131.0591 15.44311020482163
CYGFM03                 
1 41891U 16078H   25232.19199118  .00015588  00000+0  33149-3 0  9997
2 41891  34.9443  50.8021 0007302 216.9612 143.0605 15.44056834482336
FENGYUN 3D              
1 43010U 17072A   25232.49197587  .00000063  00000+0  51492-4 0  9992
2 43010  98.9686 197.2041 0001637 146.7248 213.4031 14.19633687402322
NOAA 20 (JPSS-1)        
1 43013U 17073A   25232.45206511  .00000040  00000+0  39728-4 0  9993
2 43013  98.7420 170.1071 0002080  80.3812 279.7599 14.19552934401806
GOES 17                 
1 43226U 18022A   25231.87358523 -.00000199  00000+0  00000+0 0  9992
2 43226   0.1578  95.6931 0002173 144.1554 313.5993  1.00271926 27404
FENGYUN 2H              
1 43491U 18050A   25231.90712536 -.00000147  00000+0  00000+0 0  9992
2 43491   2.2508  82.6868 0002592 129.6180 162.0846  1.00271549 26412
METOP-C                 
1 43689U 18087A   25232.44070996  .00000092  00000+0  62065-4 0  9990
2 43689  98.7105 291.8521 0000788  29.6677 330.4544 14.21482045352105
GEO-KOMPSAT-2A          
1 43823U 18100A   25232.52298008 -.00000362  00000+0  00000+0 0  9998
2 43823   0.0219 111.2401 0001692   6.2778 168.1241  1.00268830 24649
METEOR-M2 2             
1 44387U 19038A   25232.50767372  .00000093  00000+0  60038-4 0  9990
2 44387  98.8811 210.9181 0001861 127.5035 232.6312 14.24225609318493
ARKTIKA-M 1             
1 47719U 21016A   25230.93678740 -.00000168  00000+0  00000+0 0  9998
2 47719  63.1560  99.5310 7141999 268.7837  16.2357  2.00608411 32729
FENGYUN 3E              
1 49008U 21062A   25232.51501022  .00000007  00000+0  23943-4 0  9993
2 49008  98.7455 234.3767 0000955 188.7348 171.3812 14.19858196213912
GOES 18                 
1 51850U 22021A   25232.48486524  .00000079  00000+0  00000+0 0  9995
2 51850   0.0067  55.4283 0000600 177.8577 133.3190  1.00271004 12793
NOAA 21 (JPSS-2)        
1 54234U 22150A   25231.92420041  .00000057  00000+0  47797-4 0  9992
2 54234  98.7283 169.7716 0001527  12.1389 347.9824 14.19551405143801
METEOSAT-12 (MTG-I1)    
1 54743U 22170C   25232.24814133 -.00000026  00000+0  00000+0 0  9992
2 54743   0.6630  28.7533 0001638 115.9138 273.0837  1.00270314  9955
TIANMU-1 03             
1 55973U 23039A   25232.49115446  .00010787  00000+0  30357-3 0  9997
2 55973  97.5061  32.3833 0004928 101.3024 258.8774 15.36646757134497
TIANMU-1 04             
1 55974U 23039B   25232.49231117  .00011133  00000+0  31062-3 0  9992
2 55974  97.4990  31.6316 0005731  97.9234 262.2661 15.36904659134494
TIANMU-1 05             
1 55975U 23039C   25232.46215133  .00011459  00000+0  32266-3 0  9998
2 55975  97.5037  32.0789 0004622 118.0147 242.1565 15.36615925134476
TIANMU-1 06             
1 55976U 23039D   25232.49925793  .00011240  00000+0  31288-3 0  9993
2 55976  97.5049  32.4936 0005038 114.0226 246.1546 15.36977944134491
METEOR-M2 3             
1 57166U 23091A   25232.44264573  .00000005  00000+0  21094-4 0  9993
2 57166  98.6561 287.8629 0003362 340.6293  19.4757 14.24007076111710
TIANMU-1 07             
1 57399U 23101A   25232.49996830  .00006137  00000+0  24235-3 0  9997
2 57399  97.3064 284.9320 0005883 115.9649 244.2196 15.25860531115721
TIANMU-1 08             
1 57400U 23101B   25232.46619068  .00005782  00000+0  22845-3 0  9992
2 57400  97.3053 284.7160 0007839 121.0857 239.1152 15.25857884115715
TIANMU-1 09             
1 57401U 23101C   25232.45231364  .00006010  00000+0  23765-3 0  9998
2 57401  97.3008 284.2828 0007052 119.9258 240.2682 15.25815454115718
TIANMU-1 10             
1 57402U 23101D   25232.48568078  .00006236  78725-8  24426-3 0  9990
2 57402  97.3088 285.0452 0008879 121.3359 238.8749 15.25800210115717
FENGYUN 3F              
1 57490U 23111A   25232.43181823  .00000052  00000+0  44922-4 0  9998
2 57490  98.7228 302.4883 0000866 112.3000 247.8269 14.19852782106189
ARKTIKA-M 2             
1 58584U 23198A   25227.69031518  .00000185  00000+0  00000+0 0  9996
2 58584  63.2297 187.8518 6866183 268.5932  18.6124  2.00594585 12195
TIANMU-1 11             
1 58645U 23205A   25232.53775641  .00005433  00000+0  23554-3 0  9998
2 58645  97.3713 254.2376 0009142 356.5050   3.6121 15.22742168 91707
TIANMU-1 12             
1 58646U 23205B   25232.49048362  .00005314  00000+0  23071-3 0  9999
2 58646  97.3700 254.0355 0006934 346.8889  13.2166 15.22721126 91681
TIANMU-1 13             
1 58647U 23205C   25232.52436672  .00005172  00000+0  22483-3 0  9997
2 58647  97.3728 254.2259 0006418 322.1676  37.9109 15.22696771 91682
TIANMU-1 14             
1 58648U 23205D   25232.50681621  .00005112  00000+0  22285-3 0  9996
2 58648  97.3658 253.6642 0007516 322.9442  37.1275 15.22593295 91686
TIANMU-1 19             
1 58660U 23208A   25232.47809455  .00007001  00000+0  28312-3 0  9992
2 58660  97.4320 344.0585 0004382 307.8834  52.2007 15.25028422 91390
TIANMU-1 20             
1 58661U 23208B   25232.55419479  .00006859  00000+0  26756-3 0  9995
2 58661  97.4258 344.4694 0006896 316.8838  43.1860 15.26232990 91464
TIANMU-1 21             
1 58662U 23208C   25232.46077904  .00008462  00000+0  30956-3 0  9998
2 58662  97.4301 345.8191 0006423 313.3073  46.7630 15.28291658 91529
TIANMU-1 22             
1 58663U 23208D   25232.46662284  .00006945  00000+0  28147-3 0  9993
2 58663  97.4316 344.1410 0003388 342.5947  17.5174 15.24963399 91403
TIANMU-1 15             
1 58700U 24004A   25232.24641363  .00005733  00000+0  24960-3 0  9994
2 58700  97.4672  54.2744 0006087 345.5917  14.5145 15.22607504 89917
TIANMU-1 16             
1 58701U 24004B   25232.49188687  .00005101  00000+0  22209-3 0  9990
2 58701  97.4606  54.0070 0006535 349.7365  10.3736 15.22652626 89955
TIANMU-1 17             
1 58702U 24004C   25232.47077291  .00005441  00000+0  23561-3 0  9996
2 58702  97.4643  54.3564 0005276 354.0207   6.0966 15.22814161 89943
TIANMU-1 18             
1 58703U 24004D   25232.45775944  .00005595  00000+0  24302-3 0  9999
2 58703  97.4661  54.5035 0004807 342.0267  18.0799 15.22699980 89948
INSAT-3DS               
1 58990U 24033A   25231.90764536 -.00000173  00000+0  00000+0 0  9996
2 58990   0.0965 271.4105 0001207 266.6289 199.2792  1.00271353  5806
METEOR-M2 4             
1 59051U 24039A   25232.46635598  .00000012  00000+0  25121-4 0  9995
2 59051  98.6552 191.2879 0006455 329.5007  30.5795 14.22375761 76516
GOES 19                 
1 60133U 24119A   25231.30548546 -.00000263  00000+0  00000+0 0  9998
2 60133   0.0091  54.8636 0000693 197.8311 109.9746  1.00271526  3930
